TDRS 3                  
1 19548U 88091B   24135.43648172 -.00000305  00000+0  00000+0 0  9990
2 19548  13.1895 346.1640 0036256 343.9529  10.7727  1.00269129117707
HST                     
1 20580U 90037B   24135.90876623  .00010197  00000+0  48831-3 0  9994
2 20580  28.4674 208.0227 0002647  44.9204 315.1603 15.17286694672239
TDRS 5                  
1 21639U 91054B   24135.19482623 -.00000307  00000+0  00000+0 0  9999
2 21639  14.1685 359.3624 0002606 275.1837 325.5268  1.00282796120051
TDRS 6                  
1 22314U 93003B   24136.17470995 -.00000299  00000+0  00000+0 0  9994
2 22314  14.1628   2.6578 0009887 146.7231 101.0709  1.00273486114724
TDRS 7                  
1 23613U 95035B   24135.79325021 -.00000204  00000+0  00000+0 0  9996
2 23613  13.6963 353.4688 0028319  67.1958 182.6216  1.00267763105498
ISS (ZARYA)             
1 25544U 98067A   24136.48987398  .00061335  00000+0  10229-2 0  9995
2 25544  51.6382 117.4678 0003258 173.3346 331.1088 15.51380412453473
LANDSAT 7               
1 25682U 99020A   24136.55601976  .00001493  00000+0  31578-3 0  9991
2 25682  97.8899 164.8826 0001871  92.5386  27.2344 14.60635933334439
TERRA                   
1 25994U 99068A   24136.45160568  .00001706  00000+0  36697-3 0  9999
2 25994  98.0496 200.8990 0003392 102.1994 268.3780 14.59745391298391
TDRS 8                  
1 26388U 00034A   24136.46370722  .00000096  00000+0  00000+0 0  9994
2 26388  11.4920  37.5276 0002293 290.5066 265.0419  1.00277987 87520
TIMED                   
1 26998U 01055B   24136.51234019  .00003134  00000+0  31850-3 0  9996
2 26998  74.0713 326.5776 0000831 319.5489  40.5631 14.91263035217097
AQUA                    
1 27424U 02022A   24136.54042337  .00002654  00000+0  57207-3 0  9999
2 27424  98.3283  85.7929 0001172 112.6451 359.2734 14.59256188171950
TDRS 10                 
1 27566U 02055A   24135.59563381  .00000085  00000+0  00000+0 0  9994
2 27566   9.5020  45.6379 0007281 336.1807 254.4837  1.00265229 78560
SORCE                   
1 27651U 03004A   24136.49637662  .00006961  00000+0  63742-3 0  9993
2 27651  39.9926 267.3627 0020785   2.7041 357.3859 14.94887578157374
AURA                    
1 28376U 04026A   24136.16849111  .00002406  00000+0  52748-3 0  9995
2 28376  98.2491  81.2383 0001673 109.0866 251.0514 14.58543601 54906
SWIFT                   
1 28485U 04047A   24135.93586933  .00017705  00000+0  81327-3 0  9996
2 28485  20.5573  59.1309 0008141 210.0787 149.9182 15.18216052 69119
THEMIS A                
1 30580U 07004A   24136.44896143 -.00000607  00000+0  00000+0 0  9994
2 30580  10.3017 267.6048 8339992 314.5216   2.5620  0.87834019 59265
THEMIS D                
1 30797U 07004D   24130.71669311 -.00000496  00000+0  00000+0 0  9999
2 30797   6.3163 263.7824 8329139 321.4594 337.8763  0.87835072 34310
THEMIS E                
1 30798U 07004E   24136.47326374 -.00000626  00000+0  00000+0 0  9993
2 30798   7.8340 282.4776 8324922 304.7474  13.5964  0.87832757 59207
FGRST (GLAST)           
1 33053U 08029A   24135.94626730  .00005515  00000+0  25927-3 0  9998
2 33053  25.5829  77.5627 0010413   6.8221 353.2456 15.16529103879521
WISE                    
1 36119U 09071A   24136.53969049  .00062888  00000+0  74544-3 0  9996
2 36119  97.1495 172.7661 0001788 157.8138 202.3198 15.61028677803160
TDRS 11                 
1 39070U 13004A   24135.75118661  .00000077  00000+0  00000+0 0  9999
2 39070   2.7333  10.4949 0006205  45.9657 272.5786  1.00275712 39032
TDRS 12                 
1 39504U 14004A   24136.10955135 -.00000271  00000+0  00000+0 0  9994
2 39504   3.5528   2.6190 0002389 192.2869  36.8554  1.00277062 37795
GPM-CORE                
1 39574U 14009C   24135.91838206  .00021464  00000+0  45783-3 0  9990
2 39574  64.9875 344.4609 0012621 266.9704  92.9993 15.44837647579916
MMS 1                   
1 40482U 15011A   24136.58334491 -.00000489  00000+0  00000+0 0  9999
2 40482  45.9911  13.7070 9113971 144.5859  35.4852  0.28356892 15280
MMS 2                   
1 40483U 15011B   24136.58334491 -.00000489  00000+0  00000+0 0  9990
2 40483  45.9856  13.7005 9114005 144.5929  35.4807  0.28356895 15265
MMS 3                   
1 40484U 15011C   24136.58334491 -.00000489  00000+0  00000+0 0  9991
2 40484  45.9866  13.7106 9114414 144.5846  35.4846  0.28367047 15265
MMS 4                   
1 40485U 15011D   24136.58334491 -.00000489  00000+0  00000+0 0  9992
2 40485  45.9881  13.7071 9113435 144.5921  35.4642  0.28356862 15267
TDRS 13                 
1 42915U 17047A   24136.04841163 -.00000105  00000+0  00000+0 0  9998
2 42915   3.6680 343.9706 0016866 109.6727 145.5532  1.00272452 24720
NOAA 20 (JPSS-1)        
1 43013U 17073A   24136.49712172  .00000330  00000+0  17725-3 0  9998
2 43013  98.7050  74.9678 0000834  29.6182 330.5041 14.19582104336267
